{
    "links": {
        "self": "http://www.neowsapp.com/rest/v1/neo/3550086?api_key=iIulBulltgU6a56xZRHN4H3l9WmuAYTsLGpBGhQ2"
    },
    "id": "3550086",
    "neo_reference_id": "3550086",
    "name": "(2010 UV7)",
    "designation": "2010 UV7",
    "nasa_jpl_url": "http://ssd.jpl.nasa.gov/sbdb.cgi?sstr=3550086",
    "absolute_magnitude_h": 22.3,
    "estimated_diameter": {
        "kilometers": {
            "estimated_diameter_min": 0.0921626549,
            "estimated_diameter_max": 0.2060819612
        },
        "meters": {
            "estimated_diameter_min": 92.1626548503,
            "estimated_diameter_max": 206.0819612321
        },
        "miles": {
            "estimated_diameter_min": 0.057267201,
            "estimated_diameter_max": 0.1280533543
        },
        "feet": {
            "estimated_diameter_min": 302.370924539,
            "estimated_diameter_max": 676.1219416887
        }
    },
    "is_potentially_hazardous_asteroid": false,
    "close_approach_data": [
        {
            "close_approach_date": "2010-07-30",
            "close_approach_date_full": "2010-Jul-30 02:46",
            "epoch_date_close_approach": 1280457960000,
            "relative_velocity": {
                "kilometers_per_second": "25.9792192938",
                "kilometers_per_hour": "93525.1894577412",
                "miles_per_hour": "58112.9156383392"
            },
            "miss_distance": {
                "astronomical": "0.0877524301",
                "lunar": "34.1356953089",
                "kilometers": "13127576.630283887",
                "miles": "8157097.8684041606"
            },
            "orbiting_body": "Merc"
        },
        {
            "close_approach_date": "2010-10-14",
            "close_approach_date_full": "2010-Oct-14 10:54",
            "epoch_date_close_approach": 1287053640000,
            "relative_velocity": {
                "kilometers_per_second": "21.9905481487",
                "kilometers_per_hour": "79165.9733351548",
                "miles_per_hour": "49190.6571537244"
            },
            "miss_distance": {
                "astronomical": "0.2040052142",
                "lunar": "79.3580283238",
                "kilometers": "30518745.513213754",
                "miles": "18963469.1141636452"
            },
            "orbiting_body": "Earth"
        },
        {
            "close_approach_date": "2013-05-06",
            "close_approach_date_full": "2013-May-06 07:37",
            "epoch_date_close_approach": 1367825820000,
            "relative_velocity": {
                "kilometers_per_second": "17.3262008174",
                "kilometers_per_hour": "62374.3229427764",
                "miles_per_hour": "38756.9786085268"
            },
            "miss_distance": {
                "astronomical": "0.0859937115",
                "lunar": "33.4515537735",
                "kilometers": "12864476.073794505",
                "miles": "7993614.763413969"
            },
            "orbiting_body": "Mars"
        }
    ],
    "orbital_data": {
        "orbit_id": "8",
        "orbit_determination_date": "2017-04-06 08:56:05",
        "first_observation_date": "2010-10-30",
        "last_observation_date": "2010-11-07",
        "data_arc_in_days": 8,
        "observations_used": 36,
        "orbit_uncertainty": "9",
        "minimum_orbit_intersection": ".170304",
        "jupiter_tisserand_invariant": "5.138",
        "epoch_osculation": "2455502.5",
        "eccentricity": ".6092948614989008",
        "semi_major_axis": "1.153196315415633",
        "inclination": "33.07829458687434",
        "ascending_node_longitude": "35.51837921027504",
        "orbital_period": "452.3278164363525",
        "perihelion_distance": ".4505597261334223",
        "perihelion_argument": "222.1765023868888",
        "aphelion_distance": "1.855832904697844",
        "perihelion_time": "2455416.383188638115",
        "mean_anomaly": "68.53890245912153",
        "mean_motion": ".7958829568259725",
        "equinox": "J2000",
        "orbit_class": {
            "orbit_class_type": "APO",
            "orbit_class_description": "Near-Earth asteroid orbits which cross the Earth’s orbit similar to that of 1862 Apollo",
            "orbit_class_range": "a (semi-major axis) > 1.0 AU; q (perihelion) < 1.017 AU"
        }
    },
    "is_sentry_object": false
}